[{"OBJECT_NAME":"SCD 1","OBJECT_ID":"1993-009B","EPOCH":"2026-03-09T10:27:49.694112","MEAN_MOTION":14.46067729,"ECCENTRICITY":0.00420469,"INCLINATION":24.9688,"RA_OF_ASC_NODE":103.4557,"ARG_OF_PERICENTER":161.8893,"MEAN_ANOMALY":221.4416,"EPHEMERIS_TYPE":0,"CLASSIFICATION_TYPE":"U","NORAD_CAT_ID":22490,"ELEMENT_SET_NO":999,"REV_AT_EPOCH":74666,"BSTAR":9.424806e-5,"MEAN_MOTION_DOT":5.32e-6,"MEAN_MOTION_DDOT":0},{"OBJECT_NAME":"MUBLCOM","OBJECT_ID":"1999-026B","EPOCH":"2026-03-09T16:39:58.529088","MEAN_MOTION":14.56967888,"ECCENTRICITY":0.00043613,"INCLINATION":97.6988,"RA_OF_ASC_NODE":296.1295,"ARG_OF_PERICENTER":169.9266,"MEAN_ANOMALY":190.2022,"EPHEMERIS_TYPE":0,"CLASSIFICATION_TYPE":"U","NORAD_CAT_ID":25736,"ELEMENT_SET_NO":999,"REV_AT_EPOCH":41535,"BSTAR":0.00037161426,"MEAN_MOTION_DOT":1.629e-5,"MEAN_MOTION_DDOT":0}]
